#dP2019  7 23  0  0  0.00000000      96 __u+U ITR00 FIT  IAC
## 2063 172800.00000000   900.00000000 58687 0.0000000000000
+   97   C01C02C05C06C07C08C09C10C11C12C13C14C16E01E02E03E04
+        E05E07E08E09E11E12E13E14E15E18E19E21E24E25E26E27E30
+        E31E33E36G01G02G03G04G05G06G07G08G09G10G11G12G13G14
+        G15G16G17G18G19G20G21G22G23G24G25G26G27G28G29G30G31
+        G32J01J02J03J07R01R02R03R04R05R07R08R09R10R11R12R13
+        R14R15R16R17R18R19R20R21R22R23R24R26  0  0  0  0  0
++        13 12 12  9  9  9  9  8  8  8  8  8  9  6  5  5  6
++         5  5  5  6  5  6  5  5  5  5  6  5  5  5  5  5  5
++         6  5  5  4  4  4  4  4  4  4  4  4  3  4  4  4  4
++         3  4  4  4  4  3  4  4  4  3  4  3  3  4  3  4  4
++         4 10 10 10 14  5  6  6  5  5  5  5  5  5  6  5  6
++         5  5  6  5  5  6  6  5  5  5  6  8  0  0  0  0  0
%c M  cc GPS ccc cccc cccc cccc cccc ccccc ccccc ccccc ccccc
%c cc cc ccc ccc cccc cccc cccc cccc ccccc ccccc ccccc ccccc
%f  0.0000000  0.000000000  0.00000000000  0.000000000000000
%f  0.0000000  0.000000000  0.00000000000  0.000000000000000
%i    0    0    0    0      0      0      0      0         0
%i    0    0    0    0      0      0      0      0         0
/*                                                          
/*   RSA / INFORMATION & ANALYSIS CENTER (IAC) OF MCC       
/*   ULTRA-RAPID DETERMINATION                              
/* PCV:IGS14_2056 OL/AL:FES2004  NONE     YN ORB:CoN CLK:CoN
*  2019 07 23  3  0  0.00000000
PC01 -32320.003021  27039.243613    843.386587    871.421087
PC02   4352.870482  41948.891287   -340.956691     18.065957
PC05  21894.344935  36009.168847   -393.684460   -423.035101
PC06 -13373.467650  21024.643549 -33709.391830    527.850151
PC07 -23001.160861  33337.999745  10937.630740    -19.817664
PC08  -6783.615805  35672.635042  21747.714213    168.130069
PC09   2667.168320  26384.209687 -32467.610851   -166.258847
PC10 -10340.605371  34034.629964  22467.995142    -12.321097
PC11  20800.537418   2908.771489 -18358.621018    254.132563
PC12  16952.819975  21290.813131   6423.606295    892.670303
PC13   1267.164976  40989.852624  10397.403042   -860.794981
PC14  24770.629437   1273.717268 -12683.065607    524.429316
PC16 -10689.590615  21783.691136 -34453.833250   -886.309878
PE01   7672.999714  16094.916137  23627.263405   -652.833204
PE02  -7713.979437 -16052.933842 -23640.850639     70.540152
PE03 -18888.801193 -14421.752690  17643.699212   -191.264933
PE04  29376.955181   3515.397163   -946.251650   -328.974375
PE05   2749.434756 -16952.398126  24116.970116   -464.038872
PE07 -22665.110467   9552.110026 -16447.892679   -231.724530
PE08 -29404.609487  -3217.336793    861.362333   6319.662810
PE09  22566.896104  -9663.424836  16563.281803   6370.551675
PE11  11704.236888 -12699.924814 -24052.393487   5646.475140
PE12  19289.488239   8890.446067 -20612.660552   6284.836041
PE13 -11659.258640  12573.451487  24125.864951    390.377111
PE14  17057.489640 -13334.385628 -24101.099980   -653.158349
PE15 -19239.474088  -8466.295465  20842.098144    902.195120
PE18 -15832.199193   6589.920197  16350.705910   -748.562989
PE19  17110.664623  14969.498945 -18945.350701     -4.993677
PE21  -8986.805684  25757.826146  11472.143518   -545.565844
PE24  20382.325759 -20226.909225   7158.914974   5962.946248
PE25   9059.537798 -25775.579687 -11397.732013   1734.120103
PE26   2549.318233  26398.226420  13147.875480   4309.330186
PE27 -20333.124263  20187.244693  -7411.147391    423.489459
PE30 -19833.784519   2816.923629 -21796.762092   4688.921904
PE31  19726.982905  -2789.180229  21904.505485   -466.701258
PE33  15567.177700  24599.831203  -5340.613155   -469.818591
PE36  -2779.787547 -26311.522912 -13276.780165    684.133408
PG01 -13629.666954   7900.653674  21130.969656    -74.964619
PG02  14068.269734  15023.433284 -16259.706180   -266.297017
PG03 -22919.116723  12556.795135   4421.706776    179.500970
PG04 -21568.517043 -13614.820648  -8656.907545     15.059262
PG05  17860.594625   3931.460398 -19458.590909     -0.125548
PG06   6425.679197  25079.941184  -5811.547253     -2.178717
PG07  -7376.342837  21604.008229 -12886.787961    -69.913653
PG08 -24576.608765  -3461.247694   9774.058400   -152.243347
PG09  -9439.016611  12543.282585 -21464.514603    364.834606
PG10   3359.826073 -18461.986991  18777.843516    -25.603794
PG11 -15905.511344   4194.687775  20291.055097   -554.389366
PG12  23769.021269  -9329.589519   6775.702626    221.281428
PG13  23201.535440  12860.413414   1725.265533    -53.326247
PG14 -15541.780604 -18222.439309  12007.325135    -70.226578
PG15  24894.786016   1065.542978   9463.838623   -299.123417
PG16 -17108.659977  -5335.962206 -19934.420104    -58.536359
PG17   8384.368674  17972.100832  18119.660737     93.475650
PG18 -15367.912336  -1874.420684  21093.425789     72.036410
PG19  14263.732274  18171.419929  12755.425061   -290.648584
PG20  10798.078595 -21321.647134  11308.068752    526.101230
PG21   2000.918284 -25007.180001  -8178.700960   -149.714047
PG22 -22707.720742   7537.478842  11667.274810   -734.638839
PG23 -21231.797636   3136.929359 -15556.074468   -175.924380
PG24  14960.850144  -4999.287335  21187.170732    -69.171466
PG25  18747.754786 -17874.983871  -5443.614909     -2.799758
PG26  -8572.760643 -12853.039620 -21618.058152    257.851706
PG27 -23528.835206 -12455.294227  -2450.408282     -1.966247
PG28  -4942.735488  18009.096565  19530.535673    766.070935
PG29  13175.134697  -8946.551955 -21296.972515    144.394651
PG30   -739.439622  26272.447460  -2976.627337     -4.529705
PG31  -7004.539750 -24207.418307  -7635.737205     22.447044
PG32  -9302.978835 -17728.259549  17576.453735      7.926692
PJ01 -35090.576939  19850.050177  -7546.808060   -269.096319
PJ02 -24049.739428  31917.316326  -8822.277718     -1.444361
PJ03 -26361.771349  22987.652428  28587.068421     -0.046738
PJ07 -25381.409758  33661.426958    -30.879812     -0.012422
PR01   7702.891560 -11546.598825  21410.141777     47.095719
PR02 -14438.011107  -7610.474281  19664.269314    379.659733
PR03 -24936.226057    489.100179   5501.279014     -1.246821
PR04 -20623.579110   8536.100368 -12342.599582    314.829933
PR05  -5228.348615  11213.316353 -22295.793027     32.410265
PR07  25002.563011   -785.436871  -4855.499063    -23.848814
PR08  21071.459334  -8289.893418  11792.280544     16.622276
PR09   5762.752057  12907.659026  21231.175968     81.528948
PR10  12293.674816  -2400.758436  22219.281173     54.992391
PR11  13505.406079 -18985.553226  10464.574505    -73.567465
PR12   6868.498208 -23772.955313  -6132.474709     46.092191
PR13  -4359.660482 -14745.103049 -20369.943983    -26.213436
PR14 -12508.997896   2517.902715 -22068.604375     41.220345
PR15 -13597.318872  18407.880977 -11237.090474    103.214700
PR16  -6363.303656  23947.752419   6273.813664      7.197909
PR17 -16943.613136 -10379.471456  15973.332333    245.849190
PR18  -9355.566601   5037.550634  23198.452208      1.205538
PR19   2856.063113  17861.679948  17980.817294    -43.752219
PR20  14538.003974  20921.490955    669.827440   -385.130056
PR21  16775.292202   9895.490188 -16494.700110    -61.440367
PR22   7347.754578  -7639.790234 -23208.513646    -29.672527
PR23  -7169.950531 -20159.254057 -13901.544028    242.425529
PR24 -15621.249828 -20135.672003   1218.907404   -182.909532
PR26  13682.938698  21216.136147   3755.054501    -15.072430
EOF
